[{"OBJECT_NAME":"JILIN-1 KUANFU 01","OBJECT_ID":"2020-003A","EPOCH":"2026-03-09T21:54:33.175008","MEAN_MOTION":15.10079256,"ECCENTRICITY":0.00082994,"INCLINATION":97.5094,"RA_OF_ASC_NODE":144.8213,"ARG_OF_PERICENTER":285.3859,"MEAN_ANOMALY":74.6453,"EPHEMERIS_TYPE":0,"CLASSIFICATION_TYPE":"U","NORAD_CAT_ID":45016,"ELEMENT_SET_NO":999,"REV_AT_EPOCH":34034,"BSTAR":0.00024799476,"MEAN_MOTION_DOT":3.977e-5,"MEAN_MOTION_DDOT":0},{"OBJECT_NAME":"STARLINK-2453","OBJECT_ID":"2021-018BL","EPOCH":"2026-03-09T17:10:23.028384","MEAN_MOTION":15.06398266,"ECCENTRICITY":0.00012959,"INCLINATION":53.0568,"RA_OF_ASC_NODE":251.5027,"ARG_OF_PERICENTER":88.8704,"MEAN_ANOMALY":271.2433,"EPHEMERIS_TYPE":0,"CLASSIFICATION_TYPE":"U","NORAD_CAT_ID":47845,"ELEMENT_SET_NO":999,"REV_AT_EPOCH":27660,"BSTAR":4.2929862e-5,"MEAN_MOTION_DOT":3.58e-6,"MEAN_MOTION_DDOT":0}]
